[{"OBJECT_NAME":"STARLINK-34889","OBJECT_ID":"2025-216AD","EPOCH":"2026-03-09T23:14:44.639808","MEAN_MOTION":15.30219671,"ECCENTRICITY":0.00044701,"INCLINATION":53.1589,"RA_OF_ASC_NODE":331.7824,"ARG_OF_PERICENTER":168.9258,"MEAN_ANOMALY":191.1842,"EPHEMERIS_TYPE":0,"CLASSIFICATION_TYPE":"U","NORAD_CAT_ID":65761,"ELEMENT_SET_NO":999,"REV_AT_EPOCH":2663,"BSTAR":0.001101977,"MEAN_MOTION_DOT":0.00032447,"MEAN_MOTION_DDOT":0},{"OBJECT_NAME":"COSMOS 1975","OBJECT_ID":"1988-093A","EPOCH":"2026-03-09T14:15:08.474112","MEAN_MOTION":15.28069249,"ECCENTRICITY":0.0012117,"INCLINATION":82.5181,"RA_OF_ASC_NODE":117.7814,"ARG_OF_PERICENTER":163.8427,"MEAN_ANOMALY":196.3201,"EPHEMERIS_TYPE":0,"CLASSIFICATION_TYPE":"U","NORAD_CAT_ID":19573,"ELEMENT_SET_NO":999,"REV_AT_EPOCH":1939,"BSTAR":0.0002787,"MEAN_MOTION_DOT":7.676e-5,"MEAN_MOTION_DDOT":0}]
